[{"OBJECT_NAME":"STARLINK-33898","OBJECT_ID":"2025-101J","EPOCH":"2026-03-09T04:21:36.497952","MEAN_MOTION":15.27592458,"ECCENTRICITY":0.00022138,"INCLINATION":43.0071,"RA_OF_ASC_NODE":1.1709,"ARG_OF_PERICENTER":260.0031,"MEAN_ANOMALY":100.0571,"EPHEMERIS_TYPE":0,"CLASSIFICATION_TYPE":"U","NORAD_CAT_ID":64002,"ELEMENT_SET_NO":999,"REV_AT_EPOCH":4697,"BSTAR":0.0013008936,"MEAN_MOTION_DOT":0.00035724,"MEAN_MOTION_DDOT":0},{"OBJECT_NAME":"KUIPER-00184","OBJECT_ID":"2025-301G","EPOCH":"2026-03-09T22:00:01.999584","MEAN_MOTION":15.32782365,"ECCENTRICITY":0.00116958,"INCLINATION":51.8667,"RA_OF_ASC_NODE":64.5953,"ARG_OF_PERICENTER":53.2996,"MEAN_ANOMALY":333.7065,"EPHEMERIS_TYPE":0,"CLASSIFICATION_TYPE":"U","NORAD_CAT_ID":67139,"ELEMENT_SET_NO":999,"REV_AT_EPOCH":554,"BSTAR":-0.036844053,"MEAN_MOTION_DOT":-0.01088594,"MEAN_MOTION_DDOT":0}]
